ONEWEB-0212             
1 48791U 21045AA  25320.47756854  .00000139  00000+0  33543-3 0  9992
2 48791  87.8972 301.6225 0001882  84.7412 275.3933 13.15548639216462
ONEWEB-0227             
1 48792U 21045AB  25320.47675488  .00000089  00000+0  20284-3 0  9998
2 48792  87.8960 301.6357 0002055  88.0832 272.0534 13.15546567216416
ONEWEB-0226             
1 48793U 21045AC  25320.39437285  .00000214  00000+0  53366-3 0  9998
2 48793  87.8960 301.6607 0002139  95.2565 264.8809 13.15547115216370
ONEWEB-0224             
1 48794U 21045AD  25320.66215970 -.00000047  00000+0 -15850-3 0  9996
2 48794  87.8964 301.6421 0002621  71.0444 289.0970 13.15547999216337
ONEWEB-0233             
1 48795U 21045AE  25320.66676550 -.00000019  00000+0 -83595-4 0  9993
2 48795  87.8962 301.6522 0002212  86.0632 274.0751 13.15547491216359
ONEWEB-0190             
1 48796U 21045AF  25320.65422501 -.00000171  00000+0 -48911-3 0  9999
2 48796  87.8962 301.6166 0002650  93.6505 266.4929 13.15548230216425
ONEWEB-0236             
1 48797U 21045AG  25320.44348934 -.00000016  00000+0 -76974-4 0  9993
2 48797  87.8960 301.6697 0001798  83.3209 276.8126 13.15547831216286
ONEWEB-0248             
1 48798U 21045AH  25320.68434716 -.00000131  00000+0 -38220-3 0  9993
2 48798  87.8975 301.5824 0002493  82.7337 277.4077 13.15547665216470
ONEWEB-0225             
1 48799U 21045AJ  25320.47835744  .00000181  00000+0  44794-3 0  9993
2 48799  87.8965 301.6500 0002506  93.0395 267.1022 13.15548490216457
ONEWEB-0215             
1 48800U 21045AK  25320.67642053 -.00000156  00000+0 -44819-3 0  9999
2 48800  87.8974 301.5678 0002623  88.7655 271.3776 13.15548061216351
ONEWEB-0216             
1 48801U 21045AL  25320.45774656 -.00000038  00000+0 -13489-3 0  9999
2 48801  87.8962 301.6457 0001895  93.2467 266.8880 13.15547086216336
ONEWEB-0239             
1 48802U 21045AM  25320.46251306  .00000015  00000+0  52576-5 0  9998
2 48802  87.8963 301.6597 0002697  82.5796 277.5641 13.15548679216377
ONEWEB-0249             
1 48967U 21060A   25320.41259755  .00000090  00000+0  20143-3 0  9994
2 48967  87.9012 271.1525 0002011  80.7049 279.4309 13.16592964211619
ONEWEB-0250             
1 48968U 21060B   25320.78918852  .00000106  00000+0  21145-3 0  9996
2 48968  87.9012 269.5281 0002511  58.0425 302.0955 13.25818327212076
ONEWEB-0252             
1 48970U 21060D   25320.59627391 -.00000025  00000+0 -10011-3 0  9995
2 48970  87.9012 271.1092 0001887  88.3878 271.7469 13.16593837211685
ONEWEB-0253             
1 48971U 21060E   25320.58519206  .00000096  00000+0  21658-3 0  9995
2 48971  87.9015 271.1156 0002089  82.6113 277.5256 13.16594276211613
ONEWEB-0254             
1 48972U 21060F   25320.59469517  .00000018  00000+0  13152-4 0  9991
2 48972  87.9019 271.1038 0002304  80.2149 279.9242 13.16594278211613
