[{"OBJECT_NAME":"ONEWEB-0212","OBJECT_ID":"2021-045AA","EPOCH":"2025-11-16T11:27:41.921856","MEAN_MOTION":13.15548639,"ECCENTRICITY":0.0001882,"INCLINATION":87.8972,"RA_OF_ASC_NODE":301.6225,"ARG_OF_PERICENTER":84.7412,"MEAN_ANOMALY":275.3933,"EPHEMERIS_TYPE":0,"CLASSIFICATION_TYPE":"U","NORAD_CAT_ID":48791,"ELEMENT_SET_NO":999,"REV_AT_EPOCH":21646,"BSTAR":0.0003354297,"MEAN_MOTION_DOT":1.39e-6,"MEAN_MOTION_DDOT":0},{"OBJECT_NAME":"ONEWEB-0227","OBJECT_ID":"2021-045AB","EPOCH":"2025-11-16T11:26:31.621632","MEAN_MOTION":13.15546567,"ECCENTRICITY":0.00020557,"INCLINATION":87.896,"RA_OF_ASC_NODE":301.6357,"ARG_OF_PERICENTER":88.0832,"MEAN_ANOMALY":272.0534,"EPHEMERIS_TYPE":0,"CLASSIFICATION_TYPE":"U","NORAD_CAT_ID":48792,"ELEMENT_SET_NO":999,"REV_AT_EPOCH":21641,"BSTAR":0.00020283579,"MEAN_MOTION_DOT":8.9e-7,"MEAN_MOTION_DDOT":0},{"OBJECT_NAME":"ONEWEB-0226","OBJECT_ID":"2021-045AC","EPOCH":"2025-11-16T09:27:53.814240","MEAN_MOTION":13.15547115,"ECCENTRICITY":0.00021393,"INCLINATION":87.896,"RA_OF_ASC_NODE":301.6607,"ARG_OF_PERICENTER":95.2565,"MEAN_ANOMALY":264.8809,"EPHEMERIS_TYPE":0,"CLASSIFICATION_TYPE":"U","NORAD_CAT_ID":48793,"ELEMENT_SET_NO":999,"REV_AT_EPOCH":21637,"BSTAR":0.00053366413,"MEAN_MOTION_DOT":2.14e-6,"MEAN_MOTION_DDOT":0},{"OBJECT_NAME":"ONEWEB-0224","OBJECT_ID":"2021-045AD","EPOCH":"2025-11-16T15:53:30.598080","MEAN_MOTION":13.15547999,"ECCENTRICITY":0.0002621,"INCLINATION":87.8964,"RA_OF_ASC_NODE":301.6421,"ARG_OF_PERICENTER":71.0444,"MEAN_ANOMALY":289.097,"EPHEMERIS_TYPE":0,"CLASSIFICATION_TYPE":"U","NORAD_CAT_ID":48794,"ELEMENT_SET_NO":999,"REV_AT_EPOCH":21633,"BSTAR":-0.0001585,"MEAN_MOTION_DOT":-4.7e-7,"MEAN_MOTION_DDOT":0},{"OBJECT_NAME":"ONEWEB-0233","OBJECT_ID":"2021-045AE","EPOCH":"2025-11-16T16:00:08.539200","MEAN_MOTION":13.15547491,"ECCENTRICITY":0.0002212,"INCLINATION":87.8962,"RA_OF_ASC_NODE":301.6522,"ARG_OF_PERICENTER":86.0632,"MEAN_ANOMALY":274.0751,"EPHEMERIS_TYPE":0,"CLASSIFICATION_TYPE":"U","NORAD_CAT_ID":48795,"ELEMENT_SET_NO":999,"REV_AT_EPOCH":21635,"BSTAR":-8.3595e-5,"MEAN_MOTION_DOT":-1.9e-7,"MEAN_MOTION_DDOT":0},{"OBJECT_NAME":"ONEWEB-0190","OBJECT_ID":"2021-045AF","EPOCH":"2025-11-16T15:42:05.040864","MEAN_MOTION":13.1554823,"ECCENTRICITY":0.000265,"INCLINATION":87.8962,"RA_OF_ASC_NODE":301.6166,"ARG_OF_PERICENTER":93.6505,"MEAN_ANOMALY":266.4929,"EPHEMERIS_TYPE":0,"CLASSIFICATION_TYPE":"U","NORAD_CAT_ID":48796,"ELEMENT_SET_NO":999,"REV_AT_EPOCH":21642,"BSTAR":-0.00048911,"MEAN_MOTION_DOT":-1.71e-6,"MEAN_MOTION_DDOT":0},{"OBJECT_NAME":"ONEWEB-0236","OBJECT_ID":"2021-045AG","EPOCH":"2025-11-16T10:38:37.478976","MEAN_MOTION":13.15547831,"ECCENTRICITY":0.00017987,"INCLINATION":87.896,"RA_OF_ASC_NODE":301.6697,"ARG_OF_PERICENTER":83.3209,"MEAN_ANOMALY":276.8126,"EPHEMERIS_TYPE":0,"CLASSIFICATION_TYPE":"U","NORAD_CAT_ID":48797,"ELEMENT_SET_NO":999,"REV_AT_EPOCH":21628,"BSTAR":-7.6974414e-5,"MEAN_MOTION_DOT":-1.6e-7,"MEAN_MOTION_DDOT":0},{"OBJECT_NAME":"ONEWEB-0248","OBJECT_ID":"2021-045AH","EPOCH":"2025-11-16T16:25:27.594624","MEAN_MOTION":13.15547665,"ECCENTRICITY":0.0002493,"INCLINATION":87.8975,"RA_OF_ASC_NODE":301.5824,"ARG_OF_PERICENTER":82.7337,"MEAN_ANOMALY":277.4077,"EPHEMERIS_TYPE":0,"CLASSIFICATION_TYPE":"U","NORAD_CAT_ID":48798,"ELEMENT_SET_NO":999,"REV_AT_EPOCH":21647,"BSTAR":-0.0003822,"MEAN_MOTION_DOT":-1.31e-6,"MEAN_MOTION_DDOT":0},{"OBJECT_NAME":"ONEWEB-0225","OBJECT_ID":"2021-045AJ","EPOCH":"2025-11-16T11:28:50.082816","MEAN_MOTION":13.1554849,"ECCENTRICITY":0.00025065,"INCLINATION":87.8965,"RA_OF_ASC_NODE":301.65,"ARG_OF_PERICENTER":93.0395,"MEAN_ANOMALY":267.1022,"EPHEMERIS_TYPE":0,"CLASSIFICATION_TYPE":"U","NORAD_CAT_ID":48799,"ELEMENT_SET_NO":999,"REV_AT_EPOCH":21645,"BSTAR":0.00044793657,"MEAN_MOTION_DOT":1.81e-6,"MEAN_MOTION_DDOT":0},{"OBJECT_NAME":"ONEWEB-0215","OBJECT_ID":"2021-045AK","EPOCH":"2025-11-16T16:14:02.733792","MEAN_MOTION":13.15548061,"ECCENTRICITY":0.0002623,"INCLINATION":87.8974,"RA_OF_ASC_NODE":301.5678,"ARG_OF_PERICENTER":88.7655,"MEAN_ANOMALY":271.3776,"EPHEMERIS_TYPE":0,"CLASSIFICATION_TYPE":"U","NORAD_CAT_ID":48800,"ELEMENT_SET_NO":999,"REV_AT_EPOCH":21635,"BSTAR":-0.00044819,"MEAN_MOTION_DOT":-1.56e-6,"MEAN_MOTION_DDOT":0},{"OBJECT_NAME":"ONEWEB-0216","OBJECT_ID":"2021-045AL","EPOCH":"2025-11-16T10:59:09.302784","MEAN_MOTION":13.15547086,"ECCENTRICITY":0.00018958,"INCLINATION":87.8962,"RA_OF_ASC_NODE":301.6457,"ARG_OF_PERICENTER":93.2467,"MEAN_ANOMALY":266.888,"EPHEMERIS_TYPE":0,"CLASSIFICATION_TYPE":"U","NORAD_CAT_ID":48801,"ELEMENT_SET_NO":999,"REV_AT_EPOCH":21633,"BSTAR":-0.00013488581,"MEAN_MOTION_DOT":-3.8e-7,"MEAN_MOTION_DDOT":0},{"OBJECT_NAME":"ONEWEB-0239","OBJECT_ID":"2021-045AM","EPOCH":"2025-11-16T11:06:01.128384","MEAN_MOTION":13.15548679,"ECCENTRICITY":0.00026976,"INCLINATION":87.8963,"RA_OF_ASC_NODE":301.6597,"ARG_OF_PERICENTER":82.5796,"MEAN_ANOMALY":277.5641,"EPHEMERIS_TYPE":0,"CLASSIFICATION_TYPE":"U","NORAD_CAT_ID":48802,"ELEMENT_SET_NO":999,"REV_AT_EPOCH":21637,"BSTAR":5.257643e-6,"MEAN_MOTION_DOT":1.5e-7,"MEAN_MOTION_DDOT":0},{"OBJECT_NAME":"ONEWEB-0249","OBJECT_ID":"2021-060A","EPOCH":"2025-11-16T09:54:08.428320","MEAN_MOTION":13.16592964,"ECCENTRICITY":0.00020115,"INCLINATION":87.9012,"RA_OF_ASC_NODE":271.1525,"ARG_OF_PERICENTER":80.7049,"MEAN_ANOMALY":279.4309,"EPHEMERIS_TYPE":0,"CLASSIFICATION_TYPE":"U","NORAD_CAT_ID":48967,"ELEMENT_SET_NO":999,"REV_AT_EPOCH":21161,"BSTAR":0.00020142722,"MEAN_MOTION_DOT":9.0e-7,"MEAN_MOTION_DDOT":0},{"OBJECT_NAME":"ONEWEB-0250","OBJECT_ID":"2021-060B","EPOCH":"2025-11-16T18:56:25.888128","MEAN_MOTION":13.25818327,"ECCENTRICITY":0.0002511,"INCLINATION":87.9012,"RA_OF_ASC_NODE":269.5281,"ARG_OF_PERICENTER":58.0425,"MEAN_ANOMALY":302.0955,"EPHEMERIS_TYPE":0,"CLASSIFICATION_TYPE":"U","NORAD_CAT_ID":48968,"ELEMENT_SET_NO":999,"REV_AT_EPOCH":21207,"BSTAR":0.00021145,"MEAN_MOTION_DOT":1.06e-6,"MEAN_MOTION_DDOT":0},{"OBJECT_NAME":"ONEWEB-0252","OBJECT_ID":"2021-060D","EPOCH":"2025-11-16T14:18:38.065824","MEAN_MOTION":13.16593837,"ECCENTRICITY":0.00018876,"INCLINATION":87.9012,"RA_OF_ASC_NODE":271.1092,"ARG_OF_PERICENTER":88.3878,"MEAN_ANOMALY":271.7469,"EPHEMERIS_TYPE":0,"CLASSIFICATION_TYPE":"U","NORAD_CAT_ID":48970,"ELEMENT_SET_NO":999,"REV_AT_EPOCH":21168,"BSTAR":-0.00010010795,"MEAN_MOTION_DOT":-2.5e-7,"MEAN_MOTION_DDOT":0},{"OBJECT_NAME":"ONEWEB-0253","OBJECT_ID":"2021-060E","EPOCH":"2025-11-16T14:02:40.593984","MEAN_MOTION":13.16594276,"ECCENTRICITY":0.00020897,"INCLINATION":87.9015,"RA_OF_ASC_NODE":271.1156,"ARG_OF_PERICENTER":82.6113,"MEAN_ANOMALY":277.5256,"EPHEMERIS_TYPE":0,"CLASSIFICATION_TYPE":"U","NORAD_CAT_ID":48971,"ELEMENT_SET_NO":999,"REV_AT_EPOCH":21161,"BSTAR":0.00021658194,"MEAN_MOTION_DOT":9.6e-7,"MEAN_MOTION_DDOT":0},{"OBJECT_NAME":"ONEWEB-0254","OBJECT_ID":"2021-060F","EPOCH":"2025-11-16T14:16:21.662688","MEAN_MOTION":13.16594278,"ECCENTRICITY":0.00023043,"INCLINATION":87.9019,"RA_OF_ASC_NODE":271.1038,"ARG_OF_PERICENTER":80.2149,"MEAN_ANOMALY":279.9242,"EPHEMERIS_TYPE":0,"CLASSIFICATION_TYPE":"U","NORAD_CAT_ID":48972,"ELEMENT_SET_NO":999,"REV_AT_EPOCH":21161,"BSTAR":1.3152387e-5,"MEAN_MOTION_DOT":1.8e-7,"MEAN_MOTION_DDOT":0}]
